{"type": "FeatureCollection", "features": [ {"type": "Feature", "properties": {"norad_id": 28649, "name": "IRS-P5 (CARTOSAT-1)", "group": "resource", "lat": 58.1277238200235, "lon": -157.64467184110694, "alt_km": 590.8786839597633, "timestamp": "2025-12-09T11:33:54.456800+00:00", "meta": {"OBJECT_NAME": "IRS-P5 (CARTOSAT-1)", "OBJECT_ID": "2005-017A", "EPOCH": "2025-12-09T01:21:22.669632", "MEAN_MOTION": 14.90384823, "ECCENTRICITY": 0.0001457, "INCLINATION": 97.5496, "RA_OF_ASC_NODE": 9.6331, "ARG_OF_PERICENTER": 47.8419, "MEAN_ANOMALY": 312.2923, "EPHEMERIS_TYPE": 0, "CLASSIFICATION_TYPE": "U", "NORAD_CAT_ID": 28649, "ELEMENT_SET_NO": 999, "REV_AT_EPOCH": 11549, "BSTAR": 0.00019156, "MEAN_MOTION_DOT": 1.812e-05, "MEAN_MOTION_DDOT": 0}, "tle": {"line1": "1 28649U 05017A   25343.05651238  .00001812  00000+0  19156-3 0  9995", "line2": "2 28649  97.5496   9.6331 0001457  47.8419 312.2923 14.90384823115497"}}, "geometry": {"type": "Point", "coordinates": [-157.64467184110694, 58.1277238200235]}}, {"type": "Feature", "properties": {"norad_id": 28893, "name": "SINAH 1", "group": "resource", "lat": 62.385891295437055, "lon": 95.90687741248618, "alt_km": 673.0245077261989, "timestamp": "2025-12-09T11:33:54.456811+00:00", "meta": {"OBJECT_NAME": "SINAH 1", "OBJECT_ID": "2005-043D", "EPOCH": "2025-12-09T03:04:25.102848", "MEAN_MOTION": 14.63955809, "ECCENTRICITY": 0.0015165, "INCLINATION": 98.2601, "RA_OF_ASC_NODE": 111.6757, "ARG_OF_PERICENTER": 147.7332, "MEAN_ANOMALY": 212.4801, "EPHEMERIS_TYPE": 0, "CLASSIFICATION_TYPE": "U", "NORAD_CAT_ID": 28893, "ELEMENT_SET_NO": 999, "REV_AT_EPOCH": 7271, "BSTAR": 0.00016206, "MEAN_MOTION_DOT": 8.01e-06, "MEAN_MOTION_DDOT": 0}, "tle": {"line1": "1 28893U 05043D   25343.12806832  .00000801  00000+0  16206-3 0  9995", "line2": "2 28893  98.2601 111.6757 0015165 147.7332 212.4801 14.63955809 72716"}}, "geometry": {"type": "Point", "coordinates": [95.90687741248618, 62.385891295437055]}}, {"type": "Feature", "properties": {"norad_id": 29079, "name": "EROS B", "group": "resource", "lat": -59.60904897929258, "lon": 112.61390640265951, "alt_km": 373.83876469176175, "timestamp": "2025-12-09T11:33:54.456827+00:00", "meta": {"OBJECT_NAME": "EROS B", "OBJECT_ID": "2006-014A", "EPOCH": "2025-12-09T05:41:30.120288", "MEAN_MOTION": 15.66838428, "ECCENTRICITY": 0.0001619, "INCLINATION": 97.3477, "RA_OF_ASC_NODE": 99.6474, "ARG_OF_PERICENTER": 281.7131, "MEAN_ANOMALY": 78.3948, "EPHEMERIS_TYPE": 0, "CLASSIFICATION_TYPE": "U", "NORAD_CAT_ID": 29079, "ELEMENT_SET_NO": 999, "REV_AT_EPOCH": 9025, "BSTAR": 0.0016766, "MEAN_MOTION_DOT": 0.00180334, "MEAN_MOTION_DDOT": 0}, "tle": {"line1": "1 29079U 06014A   25343.23715417  .00180334  00000+0  16766-2 0  9991", "line2": "2 29079  97.3477  99.6474 0001619 281.7131  78.3948 15.66838428 90251"}}, "geometry": {"type": "Point", "coordinates": [112.61390640265951, -59.60904897929258]}}, {"type": "Feature", "properties": {"norad_id": 29228, "name": "RESURS-DK 1", "group": "resource", "lat": 39.89585354052986, "lon": -87.53553348401353, "alt_km": 528.9875474564269, "timestamp": "2025-12-09T11:33:54.456850+00:00", "meta": {"OBJECT_NAME": "RESURS-DK 1", "OBJECT_ID": "2006-021A", "EPOCH": "2025-12-08T19:05:06.967392", "MEAN_MOTION": 15.12128967, "ECCENTRICITY": 0.00076083, "INCLINATION": 69.9338, "RA_OF_ASC_NODE": 112.0315, "ARG_OF_PERICENTER": 262.3971, "MEAN_ANOMALY": 97.6331, "EPHEMERIS_TYPE": 0, "CLASSIFICATION_TYPE": "U", "NORAD_CAT_ID": 29228, "ELEMENT_SET_NO": 999, "REV_AT_EPOCH": 7378, "BSTAR": 0.00029266812, "MEAN_MOTION_DOT": 4.953e-05, "MEAN_MOTION_DDOT": 0}, "tle": {"line1": "1 29228U 06021A   25342.79521953  .00004953  00000+0  29267-3 0  9998", "line2": "2 29228  69.9338 112.0315 0007608 262.3971  97.6331 15.12128967 73783"}}, "geometry": {"type": "Point", "coordinates": [-87.53553348401353, 39.89585354052986]}}, {"type": "Feature", "properties": {"norad_id": 29268, "name": "ARIRANG-2 (KOMPSAT-2)", "group": "resource", "lat": -36.55007457737097, "lon": 177.96490523303322, "alt_km": 675.407573329393, "timestamp": "2025-12-09T11:33:54.456872+00:00", "meta": {"OBJECT_NAME": "ARIRANG-2 (KOMPSAT-2)", "OBJECT_ID": "2006-031A", "EPOCH": "2025-12-09T04:09:03.841632", "MEAN_MOTION": 14.6448826, "ECCENTRICITY": 0.0013709, "INCLINATION": 97.8257, "RA_OF_ASC_NODE": 171.8195, "ARG_OF_PERICENTER": 321.3107, "MEAN_ANOMALY": 174.1421, "EPHEMERIS_TYPE": 0, "CLASSIFICATION_TYPE": "U", "NORAD_CAT_ID": 29268, "ELEMENT_SET_NO": 999, "REV_AT_EPOCH": 3366, "BSTAR": 9.9197e-05, "MEAN_MOTION_DOT": 4.81e-06, "MEAN_MOTION_DDOT": 0}, "tle": {"line1": "1 29268U 06031A   25343.17296113  .00000481  00000+0  99197-4 0  9995", "line2": "2 29268  97.8257 171.8195 0013709 321.3107 174.1421 14.64488260 33667"}}, "geometry": {"type": "Point", "coordinates": [177.96490523303322, -36.55007457737097]}}, {"type": "Feature", "properties": {"norad_id": 29709, "name": "LAPAN-TUBSAT", "group": "resource", "lat": 9.28241119504638, "lon": -27.7668850620413, "alt_km": 610.614300164465, "timestamp": "2025-12-09T11:33:54.456889+00:00", "meta": {"OBJECT_NAME": "LAPAN-TUBSAT", "OBJECT_ID": "2007-001A", "EPOCH": "2025-12-09T05:03:26.538912", "MEAN_MOTION": 14.85663936, "ECCENTRICITY": 0.0013698, "INCLINATION": 98.1253, "RA_OF_ASC_NODE": 333.2944, "ARG_OF_PERICENTER": 84.5778, "MEAN_ANOMALY": 275.6999, "EPHEMERIS_TYPE": 0, "CLASSIFICATION_TYPE": "U", "NORAD_CAT_ID": 29709, "ELEMENT_SET_NO": 999, "REV_AT_EPOCH": 2294, "BSTAR": 0.00017975, "MEAN_MOTION_DOT": 1.503e-05, "MEAN_MOTION_DDOT": 0}, "tle": {"line1": "1 29709U 07001A   25343.21072383  .00001503  00000+0  17975-3 0  9998", "line2": "2 29709  98.1253 333.2944 0013698  84.5778 275.6999 14.85663936 22946"}}, "geometry": {"type": "Point", "coordinates": [-27.7668850620413, 9.28241119504638]}}, {"type": "Feature", "properties": {"norad_id": 31113, "name": "HAIYANG-1B", "group": "resource", "lat": 4.220412193082335, "lon": 148.51417444149956, "alt_km": 797.3380819799222, "timestamp": "2025-12-09T11:33:54.456901+00:00", "meta": {"OBJECT_NAME": "HAIYANG-1B", "OBJECT_ID": "2007-010A", "EPOCH": "2025-12-08T23:00:03.967200", "MEAN_MOTION": 14.30962926, "ECCENTRICITY": 0.0014422, "INCLINATION": 98.331, "RA_OF_ASC_NODE": 327.3928, "ARG_OF_PERICENTER": 48.4955, "MEAN_ANOMALY": 311.7464, "EPHEMERIS_TYPE": 0, "CLASSIFICATION_TYPE": "U", "NORAD_CAT_ID": 31113, "ELEMENT_SET_NO": 999, "REV_AT_EPOCH": 97342, "BSTAR": 9.0235e-05, "MEAN_MOTION_DOT": 1.96e-06, "MEAN_MOTION_DDOT": 0}, "tle": {"line1": "1 31113U 07010A   25342.95837925  .00000196  00000+0  90235-4 0  9999", "line2": "2 31113  98.3310 327.3928 0014422  48.4955 311.7464 14.30962926973420"}}, "geometry": {"type": "Point", "coordinates": [148.51417444149956, 4.220412193082335]}}, {"type": "Feature", "properties": {"norad_id": 31598, "name": "COSMO-SKYMED 1", "group": "resource", "lat": -27.5813021890714, "lon": -15.290837565608793, "alt_km": 586.3916109251668, "timestamp": "2025-12-09T11:33:54.456912+00:00", "meta": {"OBJECT_NAME": "COSMO-SKYMED 1", "OBJECT_ID": "2007-023A", "EPOCH": "2025-12-09T04:13:00.956928", "MEAN_MOTION": 14.95721329, "ECCENTRICITY": 0.0001056, "INCLINATION": 97.8835, "RA_OF_ASC_NODE": 168.5519, "ARG_OF_PERICENTER": 82.4677, "MEAN_ANOMALY": 277.6663, "EPHEMERIS_TYPE": 0, "CLASSIFICATION_TYPE": "U", "NORAD_CAT_ID": 31598, "ELEMENT_SET_NO": 999, "REV_AT_EPOCH": 137, "BSTAR": 0.0004326, "MEAN_MOTION_DOT": 4.76e-05, "MEAN_MOTION_DDOT": 0}, "tle": {"line1": "1 31598U 07023A   25343.17570552  .00004760  00000+0  43260-3 0  9991", "line2": "2 31598  97.8835 168.5519 0001056  82.4677 277.6663 14.95721329  1370"}}, "geometry": {"type": "Point", "coordinates": [-15.290837565608793, -27.5813021890714]}}, {"type": "Feature", "properties": {"norad_id": 31698, "name": "TERRASAR-X", "group": "resource", "lat": -49.85842487820973, "lon": -2.1703753049852095, "alt_km": 516.1676766332494, "timestamp": "2025-12-09T11:33:54.456923+00:00", "meta": {"OBJECT_NAME": "TERRASAR-X", "OBJECT_ID": "2007-026A", "EPOCH": "2025-12-08T12:04:27.872832", "MEAN_MOTION": 15.19158704, "ECCENTRICITY": 0.0001724, "INCLINATION": 97.4451, "RA_OF_ASC_NODE": 347.9445, "ARG_OF_PERICENTER": 89.3855, "MEAN_ANOMALY": 270.7577, "EPHEMERIS_TYPE": 0, "CLASSIFICATION_TYPE": "U", "NORAD_CAT_ID": 31698, "ELEMENT_SET_NO": 999, "REV_AT_EPOCH": 2427, "BSTAR": 0.00014009, "MEAN_MOTION_DOT": 2.877e-05, "MEAN_MOTION_DDOT": 0}, "tle": {"line1": "1 31698U 07026A   25342.50310038  .00002877  00000+0  14009-3 0  9998", "line2": "2 31698  97.4451 347.9445 0001724  89.3855 270.7577 15.19158704 24278"}}, "geometry": {"type": "Point", "coordinates": [-2.1703753049852095, -49.85842487820973]}}, {"type": "Feature", "properties": {"norad_id": 32060, "name": "WORLDVIEW-1 (WV-1)", "group": "resource", "lat": -65.5673708870331, "lon": -95.5772642018008, "alt_km": 499.68621767687273, "timestamp": "2025-12-09T11:33:54.456933+00:00", "meta": {"OBJECT_NAME": "WORLDVIEW-1 (WV-1)", "OBJECT_ID": "2007-041A", "EPOCH": "2025-12-08T21:53:06.560736", "MEAN_MOTION": 15.24589511, "ECCENTRICITY": 7.76e-05, "INCLINATION": 97.3841, "RA_OF_ASC_NODE": 100.4472, "ARG_OF_PERICENTER": 102.6667, "MEAN_ANOMALY": 257.4657, "EPHEMERIS_TYPE": 0, "CLASSIFICATION_TYPE": "U", "NORAD_CAT_ID": 32060, "ELEMENT_SET_NO": 999, "REV_AT_EPOCH": 1389, "BSTAR": 0.00039711, "MEAN_MOTION_DOT": 9.722e-05, "MEAN_MOTION_DDOT": 0}, "tle": {"line1": "1 32060U 07041A   25342.91188149  .00009722  00000+0  39711-3 0  9993", "line2": "2 32060  97.3841 100.4472 0000776 102.6667 257.4657 15.24589511 13899"}}, "geometry": {"type": "Point", "coordinates": [-95.5772642018008, -65.5673708870331]}}]}